start=new Date('2023-01-08T00:00:00.000Z').valueOf();
sats=[{"MEAN_MOTION":"15.06401467","ELEMENT_SET_NO":"999","COUNTRY_CODE":"US","TIME_SYSTEM":"UTC","MEAN_MOTION_DDOT":"0.0000000000000","PERIOD":"95.592","OBJECT_NAME":"STARLINK-1765","DECAY_DATE":null,"LAUNCH_DATE":"2020-09-03","NORAD_CAT_ID":"46344","OBJECT_TYPE":"PAYLOAD","RCS_SIZE":"LARGE","MEAN_ANOMALY":"265.5025","SITE":"AFETR","RA_OF_ASC_NODE":"149.9473","SEMIMAJOR_AXIS":"6925.344","CENTER_NAME":"EARTH","GP_ID":"222420534","INCLINATION":"53.0528","BSTAR":"0.00014315000000","MEAN_MOTION_DOT":"0.00001851","ECCENTRICITY":"0.00013050","FILE":"3735488","TLE_LINE2":"2 46344  53.0528 149.9473 0001305  94.6113 265.5025 15.06401467130223","CLASSIFICATION_TYPE":"U","ARG_OF_PERICENTER":"94.6113","EPHEMERIS_TYPE":"0","OBJECT_ID":"2020-062V","MEAN_ELEMENT_THEORY":"SGP4","TLE_LINE1":"1 46344U 20062V   23007.83511064  .00001851  00000-0  14315-3 0  9993","PERIAPSIS":"546.305","REV_AT_EPOCH":"13022","APOAPSIS":"548.113","REF_FRAME":"TEME","EPOCH":"2023-01-07T20:02:33.559296"},{"EPOCH":"2023-01-07T20:03:50.872608","PERIAPSIS":"546.251","TLE_LINE1":"1 46345U 20062W   23007.83600547 -.00000362  00000-0 -54315-5 0  9993","APOAPSIS":"548.152","REF_FRAME":"TEME","REV_AT_EPOCH":"12994","OBJECT_ID":"2020-062W","MEAN_ELEMENT_THEORY":"SGP4","EPHEMERIS_TYPE":"0","ARG_OF_PERICENTER":"68.7240","CLASSIFICATION_TYPE":"U","FILE":"3735488","TLE_LINE2":"2 46345  53.0542 169.9342 0001373  68.7240 291.3896 15.06403981129948","MEAN_MOTION_DOT":"-0.00000362","ECCENTRICITY":"0.00013730","BSTAR":"-0.00000543150000","INCLINATION":"53.0542","CENTER_NAME":"EARTH","GP_ID":"222420284","RA_OF_ASC_NODE":"169.9342","SEMIMAJOR_AXIS":"6925.336","SITE":"AFETR","MEAN_ANOMALY":"291.3896","RCS_SIZE":"LARGE","OBJECT_TYPE":"PAYLOAD","DECAY_DATE":null,"LAUNCH_DATE":"2020-09-03","NORAD_CAT_ID":"46345","OBJECT_NAME":"STARLINK-1767","MEAN_MOTION_DDOT":"0.0000000000000","TIME_SYSTEM":"UTC","PERIOD":"95.592","COUNTRY_CODE":"US","MEAN_MOTION":"15.06403981","ELEMENT_SET_NO":"999"},{"ELEMENT_SET_NO":"999","MEAN_MOTION":"15.37047935","COUNTRY_CODE":"US","PERIOD":"93.686","MEAN_MOTION_DDOT":"0.0000000000000","TIME_SYSTEM":"UTC","OBJECT_NAME":"STARLINK-1546","LAUNCH_DATE":"2020-09-03","NORAD_CAT_ID":"46346","DECAY_DATE":null,"OBJECT_TYPE":"PAYLOAD","RCS_SIZE":"LARGE","MEAN_ANOMALY":"288.0162","SITE":"AFETR","RA_OF_ASC_NODE":"335.2953","SEMIMAJOR_AXIS":"6832.981","CENTER_NAME":"EARTH","GP_ID":"222421034","INCLINATION":"53.0610","BSTAR":"0.00090097000000","MEAN_MOTION_DOT":"0.00032921","ECCENTRICITY":"0.00074350","TLE_LINE2":"2 46346  53.0610 335.2953 0007435  72.1651 288.0162 15.37047935132659","FILE":"3735488","CLASSIFICATION_TYPE":"U","ARG_OF_PERICENTER":"72.1651","EPHEMERIS_TYPE":"0","MEAN_ELEMENT_THEORY":"SGP4","OBJECT_ID":"2020-062X","REV_AT_EPOCH":"13265","APOAPSIS":"459.927","REF_FRAME":"TEME","PERIAPSIS":"449.766","TLE_LINE1":"1 46346U 20062X   23007.31886358  .00032921  00000-0  90097-3 0  9992","EPOCH":"2023-01-07T07:39:09.813312"},{"RA_OF_ASC_NODE":"125.4288","SEMIMAJOR_AXIS":"6925.366","CENTER_NAME":"EARTH","GP_ID":"222421285","RCS_SIZE":"LARGE","SITE":"AFETR","MEAN_ANOMALY":"287.6972","OBJECT_TYPE":"PAYLOAD","DECAY_DATE":null,"NORAD_CAT_ID":"46347","LAUNCH_DATE":"2020-09-03","OBJECT_NAME":"STARLINK-1547","COUNTRY_CODE":"US","TIME_SYSTEM":"UTC","MEAN_MOTION_DDOT":"0.0000000000000","PERIOD":"95.593","MEAN_MOTION":"15.06394307","ELEMENT_SET_NO":"999","TLE_LINE1":"1 46347U 20062Y   23007.72868491  .00003218  00000-0  23485-3 0  9990","PERIAPSIS":"546.401","APOAPSIS":"548.061","REF_FRAME":"TEME","REV_AT_EPOCH":"13054","EPOCH":"2023-01-07T17:29:18.376224","EPHEMERIS_TYPE":"0","OBJECT_ID":"2020-062Y","MEAN_ELEMENT_THEORY":"SGP4","CLASSIFICATION_TYPE":"U","ARG_OF_PERICENTER":"72.4147","ECCENTRICITY":"0.00011980","MEAN_MOTION_DOT":"0.00003218","FILE":"3735488","TLE_LINE2":"2 46347  53.0540 125.4288 0001198  72.4147 287.6972 15.06394307130549","BSTAR":"0.00023485000000","INCLINATION":"53.0540"},{"INCLINATION":"53.0548","BSTAR":"-0.00005926000000","ECCENTRICITY":"0.00011980","MEAN_MOTION_DOT":"-0.00001164","FILE":"3735488","TLE_LINE2":"2 46348  53.0548 150.2243 0001198  96.7303 263.3823 15.06401912130219","CLASSIFICATION_TYPE":"U","ARG_OF_PERICENTER":"96.7303","EPHEMERIS_TYPE":"0","OBJECT_ID":"2020-062Z","MEAN_ELEMENT_THEORY":"SGP4","PERIAPSIS":"546.378","TLE_LINE1":"1 46348U 20062Z   23007.77245055 -.00001164  00000-0 -59260-4 0  9992","APOAPSIS":"548.037","REF_FRAME":"TEME","REV_AT_EPOCH":"13021","EPOCH":"2023-01-07T18:32:19.727520","MEAN_MOTION":"15.06401912","ELEMENT_SET_NO":"999","COUNTRY_CODE":"US","TIME_SYSTEM":"UTC","MEAN_MOTION_DDOT":"0.0000000000000","PERIOD":"95.592","OBJECT_NAME":"STARLINK-1553","DECAY_DATE":null,"NORAD_CAT_ID":"46348","LAUNCH_DATE":"2020-09-03","OBJECT_TYPE":"PAYLOAD","RCS_SIZE":"LARGE","SITE":"AFETR","MEAN_ANOMALY":"263.3823","SEMIMAJOR_AXIS":"6925.343","RA_OF_ASC_NODE":"150.2243","CENTER_NAME":"EARTH","GP_ID":"222420034"},{"PERIOD":"95.592","MEAN_MOTION_DDOT":"0.0000000000000","TIME_SYSTEM":"UTC","COUNTRY_CODE":"US","ELEMENT_SET_NO":"999","MEAN_MOTION":"15.06401271","OBJECT_NAME":"STARLINK-1575","OBJECT_TYPE":"PAYLOAD","LAUNCH_DATE":"2020-09-03","NORAD_CAT_ID":"46349","DECAY_DATE":null,"CENTER_NAME":"EARTH","GP_ID":"222420785","RA_OF_ASC_NODE":"126.7270","SEMIMAJOR_AXIS":"6925.345","SITE":"AFETR","MEAN_ANOMALY":"293.3901","RCS_SIZE":"LARGE","INCLINATION":"53.0511","BSTAR":"0.00020559000000","ARG_OF_PERICENTER":"66.7360","CLASSIFICATION_TYPE":"U","TLE_LINE2":"2 46349  53.0511 126.7270 0002580  66.7360 293.3901 15.06401271130515","FILE":"3735488","MEAN_MOTION_DOT":"0.00002782","ECCENTRICITY":"0.00025800","EPOCH":"2023-01-07T10:29:59.237952","REV_AT_EPOCH":"13051","APOAPSIS":"548.996","REF_FRAME":"TEME","TLE_LINE1":"1 46349U 20062AA  23007.43749118  .00002782  00000-0  20559-3 0  9998","PERIAPSIS":"545.423","OBJECT_ID":"2020-062AA","MEAN_ELEMENT_THEORY":"SGP4","EPHEMERIS_TYPE":"0"},{"SEMIMAJOR_AXIS":"6925.352","RA_OF_ASC_NODE":"170.3957","GP_ID":"222421534","CENTER_NAME":"EARTH","RCS_SIZE":"LARGE","MEAN_ANOMALY":"279.8231","SITE":"AFETR","OBJECT_TYPE":"PAYLOAD","DECAY_DATE":null,"LAUNCH_DATE":"2020-09-03","NORAD_CAT_ID":"46350","OBJECT_NAME":"STARLINK-1617","COUNTRY_CODE":"US","MEAN_MOTION_DDOT":"0.0000000000000","TIME_SYSTEM":"UTC","PERIOD":"95.592","MEAN_MOTION":"15.06398905","ELEMENT_SET_NO":"999","TLE_LINE1":"1 46350U 20062AB  23007.73374749 -.00000243  00000-0  26118-5 0  9997","PERIAPSIS":"546.319","REF_FRAME":"TEME","APOAPSIS":"548.114","REV_AT_EPOCH":"12993","EPOCH":"2023-01-07T17:36:35.783136","EPHEMERIS_TYPE":"0","MEAN_ELEMENT_THEORY":"SGP4","OBJECT_ID":"2020-062AB","CLASSIFICATION_TYPE":"U","ARG_OF_PERICENTER":"80.2904","MEAN_MOTION_DOT":"-0.00000243","ECCENTRICITY":"0.00012960","FILE":"3735488","TLE_LINE2":"2 46350  53.0531 170.3957 0001296  80.2904 279.8231 15.06398905129932","BSTAR":"0.00000261180000","INCLINATION":"53.0531"},{"INCLINATION":"53.0567","BSTAR":"-0.00000749140000","CLASSIFICATION_TYPE":"U","ARG_OF_PERICENTER":"53.0547","MEAN_MOTION_DOT":"-0.00000393","ECCENTRICITY":"0.00009420","FILE":"3735488","TLE_LINE2":"2 46351  53.0567 151.2507 0000942  53.0547 307.0528 15.06403046130195","TLE_LINE1":"1 46351U 20062AC  23007.53929143 -.00000393  00000-0 -74914-5 0  9994","PERIAPSIS":"546.552","APOAPSIS":"547.857","REV_AT_EPOCH":"13019","REF_FRAME":"TEME","EPOCH":"2023-01-07T12:56:34.779552","EPHEMERIS_TYPE":"0","OBJECT_ID":"2020-062AC","MEAN_ELEMENT_THEORY":"SGP4","COUNTRY_CODE":"US","TIME_SYSTEM":"UTC","MEAN_MOTION_DDOT":"0.0000000000000","PERIOD":"95.592","MEAN_MOTION":"15.06403046","ELEMENT_SET_NO":"999","OBJECT_NAME":"STARLINK-1646","OBJECT_TYPE":"PAYLOAD","DECAY_DATE":null,"NORAD_CAT_ID":"46351","LAUNCH_DATE":"2020-09-03","SEMIMAJOR_AXIS":"6925.339","RA_OF_ASC_NODE":"151.2507","CENTER_NAME":"EARTH","GP_ID":"222421785","RCS_SIZE":"LARGE","SITE":"AFETR","MEAN_ANOMALY":"307.0528"},{"BSTAR":"-0.00005989100000","INCLINATION":"53.0533","TLE_LINE1":"1 46352U 20062AD  23007.65450098 -.00001173  00000-0 -59891-4 0  9999","PERIAPSIS":"546.241","APOAPSIS":"548.180","REF_FRAME":"TEME","REV_AT_EPOCH":"13020","EPOCH":"2023-01-07T15:42:28.884672","EPHEMERIS_TYPE":"0","MEAN_ELEMENT_THEORY":"SGP4","OBJECT_ID":"2020-062AD","CLASSIFICATION_TYPE":"U","ARG_OF_PERICENTER":"84.3853","MEAN_MOTION_DOT":"-0.00001173","ECCENTRICITY":"0.00014000","FILE":"3735488","TLE_LINE2":"2 46352  53.0533 150.7578 0001400  84.3853 275.7296 15.06401022130205","OBJECT_NAME":"STARLINK-1653","COUNTRY_CODE":"US","TIME_SYSTEM":"UTC","MEAN_MOTION_DDOT":"0.0000000000000","PERIOD":"95.592","MEAN_MOTION":"15.06401022","ELEMENT_SET_NO":"999","SEMIMAJOR_AXIS":"6925.345","RA_OF_ASC_NODE":"150.7578","GP_ID":"222420535","CENTER_NAME":"EARTH","RCS_SIZE":"LARGE","SITE":"AFETR","MEAN_ANOMALY":"275.7296","OBJECT_TYPE":"PAYLOAD","DECAY_DATE":null,"LAUNCH_DATE":"2020-09-03","NORAD_CAT_ID":"46352"},{"RCS_SIZE":"LARGE","SITE":"AFETR","MEAN_ANOMALY":"278.7860","SEMIMAJOR_AXIS":"6925.351","RA_OF_ASC_NODE":"169.8758","CENTER_NAME":"EARTH","GP_ID":"222420285","DECAY_DATE":null,"NORAD_CAT_ID":"46353","LAUNCH_DATE":"2020-09-03","OBJECT_TYPE":"PAYLOAD","OBJECT_NAME":"STARLINK-1656","MEAN_MOTION":"15.06399300","ELEMENT_SET_NO":"999","COUNTRY_CODE":"US","MEAN_MOTION_DDOT":"0.0000000000000","TIME_SYSTEM":"UTC","PERIOD":"95.592","EPHEMERIS_TYPE":"0","OBJECT_ID":"2020-062AE","MEAN_ELEMENT_THEORY":"SGP4","TLE_LINE1":"1 46353U 20062AE  23007.85169638 -.00000313  00000-0 -21468-5 0  9994","PERIAPSIS":"546.341","APOAPSIS":"548.090","REF_FRAME":"TEME","REV_AT_EPOCH":"12994","EPOCH":"2023-01-07T20:26:26.567232","MEAN_MOTION_DOT":"-0.00000313","ECCENTRICITY":"0.00012630","FILE":"3735488","TLE_LINE2":"2 46353  53.0542 169.8758 0001263  81.3272 278.7860 15.06399300129940","CLASSIFICATION_TYPE":"U","ARG_OF_PERICENTER":"81.3272","BSTAR":"-0.00000214680000","INCLINATION":"53.0542"}];
